CZ-2D R/B               
1 28738U 05024B   26077.49405708  .00031794  00000+0  38021-3 0  9998
2 28738  97.3581  92.9681 0004306  22.4109 337.7336 15.60932652141152
ALOS (DAICHI)           
1 28931U 06002A   26077.42090813  .00001280  00000+0  22250-3 0  9994
2 28931  98.1233  33.3333 0000718  77.5433 282.5853 14.69837977 74762
H-2A R/B                
1 28932U 06002B   26077.38476130  .00007866  00000+0  39276-3 0  9992
2 28932  98.2421 225.1583 0052067 211.1266 148.6878 15.16608481 95755
RESURS-DK 1             
1 29228U 06021A   26077.39588120  .00002760  00000+0  16292-3 0  9997
2 29228  69.9332 214.5006 0000996 142.5619 217.5616 15.12806568 88845
CZ-4B R/B               
1 29507U 06046C   26077.11852924  .00003621  00000+0  18454-3 0  9999
2 29507  97.5578 122.0046 0031887 236.6676 123.1504 15.16990033 61329
CZ-2C R/B               
1 31114U 07010B   26077.53216818  .00000118  00000+0  73638-4 0  9994
2 31114  98.3986 190.3680 0057836 268.3944  91.0608 14.20249421980973
COSMO-SKYMED 1          
1 31598U 07023A   26077.49007281  .00002955  00000+0  26465-3 0  9997
2 31598  97.8881 268.5938 0001529  88.7292 271.4104 14.96608566 16224
COSMOS 2428             
1 31792U 07029A   26077.31330167 -.00000020  00000+0  15059-4 0  9992
2 31792  70.9440 185.2439 0009444 268.2938  91.7101 14.12947396965318
SL-16 R/B               
1 31793U 07029B   26077.46232865  .00000349  00000+0  20554-3 0  9993
2 31793  70.9757 153.9453 0002314 276.3639  95.6936 14.14838001966612
KORONAS-FOTON           
1 33504U 09003A   26077.51676229  .00010806  00000+0  23945-3 0  9997
2 33504  82.4269 266.6984 0011760 120.8116 239.4290 15.43532543947108
CZ-2C R/B               
1 37731U 11030B   26077.40351229  .00001505  00000+0  19575-3 0  9994
2 37731  97.8560  34.4931 0051688 323.4737 149.9012 14.81255076791382
H-2A R/B                
1 38341U 12025E   26077.42832019  .00002588  00000+0  23730-3 0  9990
2 38341  98.4740  45.1749 0043223 284.7714  74.8717 14.95229407749524
SHIJIAN-16 (SJ-16)      
1 39358U 13057A   26077.54508329  .00001640  00000+0  16266-3 0  9996
2 39358  74.9740 168.3258 0015320  89.9121 270.3823 14.92385028672827
SL-4 R/B                
1 39679U 14021B   26076.87385547  .00012320  00000+0  27196-3 0  9995
2 39679  51.6063 297.3446 0096816 132.8242 228.0930 15.39450841657534
ALOS-2                  
1 39766U 14029A   26077.51078355  .00001808  00000+0  24857-3 0  9998
2 39766  97.9195 175.9802 0001487  93.0566 267.0815 14.79539693638174
YAOGAN-29               
1 41038U 15069A   26077.49835374  .00000785  00000+0  10321-3 0  9991
2 41038  98.0131 105.9511 0001317  22.8351 337.2920 14.83006198557187
ASTRO-H (HITOMI)        
1 41337U 16012A   26076.83068632  .00002469  00000+0  14225-3 0  9992
2 41337  30.9997 304.0110 0009639  52.6877 307.4639 15.10059012553467
HXMT (HUIYAN)           
1 42758U 17034A   26077.40003873  .00004533  00000+0  23012-3 0  9993
2 42758  43.0155 328.2446 0033116 288.9371  70.7889 15.17583981483863
SAOCOM 1A               
1 43641U 18076A   26077.53688637  .00000242  00000+0  36954-4 0  9996
2 43641  97.8892 265.5844 0001433  88.6848 271.4529 14.82149143402676
H-2A R/B                
1 43682U 18084L   26077.56063753  .00014742  00000+0  34781-3 0  9994
2 43682  98.8719 296.8474 0024688 354.8888   5.2098 15.41717347407149
SAOCOM 1B               
1 46265U 20059A   26073.04490030  .00000161  00000+0  26755-4 0  9993
2 46265  97.8899 260.2532 0001383  84.3427 275.7944 14.82151938299390
CSS (TIANHE)            
1 48274U 21035A   26077.41710101  .00021654  00000+0  25231-3 0  9996
2 48274  41.4669 155.0409 0005981 326.6745  33.3717 15.61133273278976
COSMOS 2550             
1 48865U 21056A   26076.14655870 -.00000204  00000+0 -37996-6 0  9999
2 48865  67.1448  18.3252 0008297 268.8880  91.1323 15.33878800264600
CZ-2C R/B               
1 52794U 22058K   26077.25424037  .00026527  00000+0  38095-3 0  9992
2 52794  50.1878 274.2128 0041906 237.3535 122.3389 15.54843940211467
CZ-2C R/B               
1 54039U 22132E   26077.27499836  .00034194  00000+0  37926-3 0  9991
2 54039  97.2952  80.8573 0019743  64.2408 296.0885 15.62634555191715
GSLV R/B                
1 54149U 22138AN  26077.47871046  .00002166  00000+0  18554-3 0  9998
2 54149  87.3877 163.4208 0023888 117.3396 243.0272 14.96834370185243
XRISM                   
1 57800U 23137A   26077.55531807  .00004499  00000+0  25283-3 0  9990
2 57800  31.0008 226.3134 0007925 128.2421 231.8932 15.11597369139130
ACS3                    
1 59588U 24077B   26077.35317876  .00011996  00000+0  95681-2 0  9993
2 59588  97.2025  16.5184 0067390  56.2297 304.5262 13.89975239 95409
SZ-21 MODULE            
1 66515U 25246C   26077.53946753  .00028586  00000+0  24029-3 0  9994
2 66515  41.4738 148.8547 0000478 292.1706  67.9085 15.69230343 19466
